{
  "type": "FeatureCollection",
  "features": [
    {
      "type": "Feature",
      "properties": {
        "norad_id": 31514,
        "name": "FENGYUN 1C DEB",
        "group": "fengyun-1c-debris",
        "lat": 64.855590782122,
        "lon": -143.6681246158314,
        "alt_km": 808.6038180624209,
        "timestamp": "2025-12-02T08:59:32.997034+00:00",
        "meta_object_name": "FENGYUN 1C DEB",
        "meta_object_id": "1999-025BXD",
        "meta_epoch": "2025-11-30T16:07:05.297376",
        "meta_mean_motion": 14.20861654,
        "meta_eccentricity": 0.00517375,
        "meta_inclination": 99.2458,
        "meta_ra_of_asc_node": 234.8568,
        "meta_arg_of_pericenter": 150.191,
        "meta_mean_anomaly": 210.223,
        "meta_ephemeris_type": 0,
        "meta_classification_type": "U",
        "meta_norad_cat_id": 31514,
        "meta_element_set_no": 999,
        "meta_rev_at_epoch": 69153,
        "meta_bstar": 0.0016030637,
        "meta_mean_motion_dot": 3.466e-05,
        "meta_mean_motion_ddot": 0,
        "tle_line1": "1 31514U 99025BXD 25334.67158909  .00003466  00000+0  16031-2 0  9992",
        "tle_line2": "2 31514  99.2458 234.8568 0051737 150.1910 210.2230 14.20861654691530"
      },
      "geometry": {
        "type": "Point",
        "coordinates": [
          -143.6681246158314,
          64.855590782122
        ]
      }
    },
    {
      "type": "Feature",
      "properties": {
        "norad_id": 31516,
        "name": "FENGYUN 1C DEB",
        "group": "fengyun-1c-debris",
        "lat": -48.86613895551589,
        "lon": -98.05775535752767,
        "alt_km": 730.9594606856945,
        "timestamp": "2025-12-02T08:59:32.997043+00:00",
        "meta_object_name": "FENGYUN 1C DEB",
        "meta_object_id": "1999-025BXF",
        "meta_epoch": "2025-12-01T06:46:22.370304",
        "meta_mean_motion": 14.25365436,
        "meta_eccentricity": 0.0148139,
        "meta_inclination": 98.832,
        "meta_ra_of_asc_node": 91.0964,
        "meta_arg_of_pericenter": 271.949,
        "meta_mean_anomaly": 115.971,
        "meta_ephemeris_type": 0,
        "meta_classification_type": "U",
        "meta_norad_cat_id": 31516,
        "meta_element_set_no": 999,
        "meta_rev_at_epoch": 96329,
        "meta_bstar": 0.00049633,
        "meta_mean_motion_dot": 1.264e-05,
        "meta_mean_motion_ddot": 0,
        "tle_line1": "1 31516U 99025BXF 25335.28220336  .00001264  00000+0  49633-3 0  9995",
        "tle_line2": "2 31516  98.8320  91.0964 0148139 271.9490 115.9710 14.25365436963297"
      },
      "geometry": {
        "type": "Point",
        "coordinates": [
          -98.05775535752767,
          -48.86613895551589
        ]
      }
    },
    {
      "type": "Feature",
      "properties": {
        "norad_id": 31519,
        "name": "FENGYUN 1C DEB",
        "group": "fengyun-1c-debris",
        "lat": 64.00746785713892,
        "lon": -44.83029422543442,
        "alt_km": 840.5533574849533,
        "timestamp": "2025-12-02T08:59:32.997054+00:00",
        "meta_object_name": "FENGYUN 1C DEB",
        "meta_object_id": "1999-025BXJ",
        "meta_epoch": "2025-12-01T10:45:09.556992",
        "meta_mean_motion": 14.23360539,
        "meta_eccentricity": 0.00517803,
        "meta_inclination": 98.5733,
        "meta_ra_of_asc_node": 332.2902,
        "meta_arg_of_pericenter": 276.1826,
        "meta_mean_anomaly": 83.3455,
        "meta_ephemeris_type": 0,
        "meta_classification_type": "U",
        "meta_norad_cat_id": 31519,
        "meta_element_set_no": 999,
        "meta_rev_at_epoch": 64604,
        "meta_bstar": 0.00054475551,
        "meta_mean_motion_dot": 1.209e-05,
        "meta_mean_motion_ddot": 0,
        "tle_line1": "1 31519U 99025BXJ 25335.44802728  .00001209  00000+0  54476-3 0  9997",
        "tle_line2": "2 31519  98.5733 332.2902 0051780 276.1826  83.3455 14.23360539646044"
      },
      "geometry": {
        "type": "Point",
        "coordinates": [
          -44.83029422543442,
          64.00746785713892
        ]
      }
    },
    {
      "type": "Feature",
      "properties": {
        "norad_id": 31522,
        "name": "FENGYUN 1C DEB",
        "group": "fengyun-1c-debris",
        "lat": 36.680350486891136,
        "lon": -178.429118891311,
        "alt_km": 875.6693292069849,
        "timestamp": "2025-12-02T08:59:32.997065+00:00",
        "meta_object_name": "FENGYUN 1C DEB",
        "meta_object_id": "1999-025BXM",
        "meta_epoch": "2025-12-01T18:37:39.460224",
        "meta_mean_motion": 14.03966516,
        "meta_eccentricity": 0.0042954,
        "meta_inclination": 98.7081,
        "meta_ra_of_asc_node": 354.4424,
        "meta_arg_of_pericenter": 231.4187,
        "meta_mean_anomaly": 128.3129,
        "meta_ephemeris_type": 0,
        "meta_classification_type": "U",
        "meta_norad_cat_id": 31522,
        "meta_element_set_no": 999,
        "meta_rev_at_epoch": 94842,
        "meta_bstar": 0.00074798,
        "meta_mean_motion_dot": 1.149e-05,
        "meta_mean_motion_ddot": 0,
        "tle_line1": "1 31522U 99025BXM 25335.77615116  .00001149  00000+0  74798-3 0  9992",
        "tle_line2": "2 31522  98.7081 354.4424 0042954 231.4187 128.3129 14.03966516948428"
      },
      "geometry": {
        "type": "Point",
        "coordinates": [
          -178.429118891311,
          36.680350486891136
        ]
      }
    },
    {
      "type": "Feature",
      "properties": {
        "norad_id": 31523,
        "name": "FENGYUN 1C DEB",
        "group": "fengyun-1c-debris",
        "lat": -20.00229111943914,
        "lon": 27.3487439181073,
        "alt_km": 877.5633425901997,
        "timestamp": "2025-12-02T08:59:32.997075+00:00",
        "meta_object_name": "FENGYUN 1C DEB",
        "meta_object_id": "1999-025BXN",
        "meta_epoch": "2025-11-28T22:27:21.252960",
        "meta_mean_motion": 14.13857724,
        "meta_eccentricity": 0.00389841,
        "meta_inclination": 98.7593,
        "meta_ra_of_asc_node": 20.7623,
        "meta_arg_of_pericenter": 148.4938,
        "meta_mean_anomaly": 337.0725,
        "meta_ephemeris_type": 0,
        "meta_classification_type": "U",
        "meta_norad_cat_id": 31523,
        "meta_element_set_no": 999,
        "meta_rev_at_epoch": 95812,
        "meta_bstar": 2.2755834e-05,
        "meta_mean_motion_dot": 0,
        "meta_mean_motion_ddot": 0,
        "tle_line1": "1 31523U 99025BXN 25332.93566265  .00000000  00000+0  22756-4 0  9991",
        "tle_line2": "2 31523  98.7593  20.7623 0038984 148.4938 337.0725 14.13857724958120"
      },
      "geometry": {
        "type": "Point",
        "coordinates": [
          27.3487439181073,
          -20.00229111943914
        ]
      }
    },
    {
      "type": "Feature",
      "properties": {
        "norad_id": 31527,
        "name": "FENGYUN 1C DEB",
        "group": "fengyun-1c-debris",
        "lat": -1.1343786259186386,
        "lon": -36.746145876659455,
        "alt_km": 1446.4519773033844,
        "timestamp": "2025-12-02T08:59:32.997085+00:00",
        "meta_object_name": "FENGYUN 1C DEB",
        "meta_object_id": "1999-025BXS",
        "meta_epoch": "2025-11-28T16:57:37.524384",
        "meta_mean_motion": 13.23385857,
        "meta_eccentricity": 0.04495652,
        "meta_inclination": 98.8931,
        "meta_ra_of_asc_node": 140.2922,
        "meta_arg_of_pericenter": 334.6734,
        "meta_mean_anomaly": 23.2945,
        "meta_ephemeris_type": 0,
        "meta_classification_type": "U",
        "meta_norad_cat_id": 31527,
        "meta_element_set_no": 999,
        "meta_rev_at_epoch": 90004,
        "meta_bstar": 0.00062155533,
        "meta_mean_motion_dot": 4.13e-06,
        "meta_mean_motion_ddot": 0,
        "tle_line1": "1 31527U 99025BXS 25332.70668431  .00000413  00000+0  62156-3 0  9993",
        "tle_line2": "2 31527  98.8931 140.2922 0449565 334.6734  23.2945 13.23385857900044"
      },
      "geometry": {
        "type": "Point",
        "coordinates": [
          -36.746145876659455,
          -1.1343786259186386
        ]
      }
    },
    {
      "type": "Feature",
      "properties": {
        "norad_id": 31531,
        "name": "FENGYUN 1C DEB",
        "group": "fengyun-1c-debris",
        "lat": -47.22746812457603,
        "lon": -167.74725132339464,
        "alt_km": 721.6456872380013,
        "timestamp": "2025-12-02T08:59:32.997095+00:00",
        "meta_object_name": "FENGYUN 1C DEB",
        "meta_object_id": "1999-025BXW",
        "meta_epoch": "2025-11-29T09:39:09.228960",
        "meta_mean_motion": 14.3550236,
        "meta_eccentricity": 0.02446365,
        "meta_inclination": 98.3863,
        "meta_ra_of_asc_node": 18.5353,
        "meta_arg_of_pericenter": 308.4856,
        "meta_mean_anomaly": 49.4611,
        "meta_ephemeris_type": 0,
        "meta_classification_type": "U",
        "meta_norad_cat_id": 31531,
        "meta_element_set_no": 999,
        "meta_rev_at_epoch": 63743,
        "meta_bstar": 0.00073280975,
        "meta_mean_motion_dot": 2.91e-05,
        "meta_mean_motion_ddot": 0,
        "tle_line1": "1 31531U 99025BXW 25333.40219015  .00002910  00000+0  73281-3 0  9991",
        "tle_line2": "2 31531  98.3863  18.5353 0244636 308.4856  49.4611 14.35502360637433"
      },
      "geometry": {
        "type": "Point",
        "coordinates": [
          -167.74725132339464,
          -47.22746812457603
        ]
      }
    }
  ]
}